start=new Date('2023-04-10T00:00:00.000Z').valueOf();
sats=[{"MEAN_ANOMALY":"265.2538","RCS_SIZE":"LARGE","REF_FRAME":"TEME","OBJECT_ID":"2020-057R","APOAPSIS":"548.119","ARG_OF_PERICENTER":"94.8597","PERIAPSIS":"546.347","OBJECT_TYPE":"PAYLOAD","SITE":"AFETR","TLE_LINE1":"1 46132U 20057R   23099.27222339  .00021401  00000-0  14515-2 0  9999","MEAN_MOTION":"15.06393619","COUNTRY_CODE":"US","CLASSIFICATION_TYPE":"U","TLE_LINE2":"2 46132  53.0543  59.4605 0001279  94.8597 265.2538 15.06393619146744","CENTER_NAME":"EARTH","EPHEMERIS_TYPE":"0","MEAN_ELEMENT_THEORY":"SGP4","PERIOD":"95.593","MEAN_MOTION_DOT":"0.00021401","FILE":"3884332","ELEMENT_SET_NO":"999","TIME_SYSTEM":"UTC","SEMIMAJOR_AXIS":"6925.368","EPOCH":"2023-04-09T06:32:00.100896","RA_OF_ASC_NODE":"59.4605","DECAY_DATE":null,"OBJECT_NAME":"STARLINK-1630","LAUNCH_DATE":"2020-08-18","BSTAR":"0.00145150000000","NORAD_CAT_ID":"46132","GP_ID":"229771774","REV_AT_EPOCH":"14674","MEAN_MOTION_DDOT":"0.0000000000000","INCLINATION":"53.0543","ECCENTRICITY":"0.00012790"},{"ELEMENT_SET_NO":"999","TIME_SYSTEM":"UTC","FILE":"3884372","MEAN_MOTION_DOT":"-0.00004551","PERIOD":"95.591","MEAN_ELEMENT_THEORY":"SGP4","OBJECT_NAME":"STARLINK-1637","LAUNCH_DATE":"2020-08-18","DECAY_DATE":null,"RA_OF_ASC_NODE":"17.0753","SEMIMAJOR_AXIS":"6925.277","EPOCH":"2023-04-09T19:16:16.749696","BSTAR":"-0.00028666000000","ECCENTRICITY":"0.00016220","MEAN_MOTION_DDOT":"0.0000000000000","INCLINATION":"53.0559","REV_AT_EPOCH":"14678","GP_ID":"229779923","NORAD_CAT_ID":"46133","REF_FRAME":"TEME","APOAPSIS":"548.266","OBJECT_ID":"2020-057S","MEAN_ANOMALY":"259.7763","RCS_SIZE":"LARGE","SITE":"AFETR","PERIAPSIS":"546.019","OBJECT_TYPE":"PAYLOAD","ARG_OF_PERICENTER":"100.3409","TLE_LINE2":"2 46133  53.0559  17.0753 0001622 100.3409 259.7763 15.06423263146784","COUNTRY_CODE":"US","CLASSIFICATION_TYPE":"U","MEAN_MOTION":"15.06423263","TLE_LINE1":"1 46133U 20057S   23099.80297164 -.00004551  00000-0 -28666-3 0  9999","EPHEMERIS_TYPE":"0","CENTER_NAME":"EARTH"},{"REV_AT_EPOCH":"14603","GP_ID":"229772274","NORAD_CAT_ID":"46134","ECCENTRICITY":"0.00013890","INCLINATION":"53.0560","MEAN_MOTION_DDOT":"0.0000000000000","BSTAR":"0.00208200000000","RA_OF_ASC_NODE":"19.7369","SEMIMAJOR_AXIS":"6925.399","EPOCH":"2023-04-09T05:00:26.000064","OBJECT_NAME":"STARLINK-1638","LAUNCH_DATE":"2020-08-18","DECAY_DATE":null,"PERIOD":"95.593","MEAN_ELEMENT_THEORY":"SGP4","ELEMENT_SET_NO":"999","TIME_SYSTEM":"UTC","MEAN_MOTION_DOT":"0.00030852","FILE":"3884332","CENTER_NAME":"EARTH","EPHEMERIS_TYPE":"0","MEAN_MOTION":"15.06383606","TLE_LINE1":"1 46134U 20057T   23099.20863426  .00030852  00000-0  20820-2 0  9998","TLE_LINE2":"2 46134  53.0560  19.7369 0001389  81.7510 278.3636 15.06383606146034","CLASSIFICATION_TYPE":"U","COUNTRY_CODE":"US","OBJECT_TYPE":"PAYLOAD","PERIAPSIS":"546.302","ARG_OF_PERICENTER":"81.7510","SITE":"AFETR","MEAN_ANOMALY":"278.3636","RCS_SIZE":"LARGE","REF_FRAME":"TEME","OBJECT_ID":"2020-057T","APOAPSIS":"548.226"},{"GP_ID":"229773021","REV_AT_EPOCH":"14602","NORAD_CAT_ID":"46135","ECCENTRICITY":"0.00011400","MEAN_MOTION_DDOT":"0.0000000000000","INCLINATION":"53.0546","BSTAR":"0.00123950000000","RA_OF_ASC_NODE":"19.9735","SEMIMAJOR_AXIS":"6925.415","EPOCH":"2023-04-09T03:47:29.018400","LAUNCH_DATE":"2020-08-18","OBJECT_NAME":"STARLINK-1639","DECAY_DATE":null,"PERIOD":"95.594","MEAN_ELEMENT_THEORY":"SGP4","ELEMENT_SET_NO":"999","TIME_SYSTEM":"UTC","MEAN_MOTION_DOT":"0.00018218","FILE":"3884332","CENTER_NAME":"EARTH","EPHEMERIS_TYPE":"0","MEAN_MOTION":"15.06378279","TLE_LINE1":"1 46135U 20057U   23099.15797475  .00018218  00000-0  12395-2 0  9993","TLE_LINE2":"2 46135  53.0546  19.9735 0001140 114.5510 245.5598 15.06378279146020","COUNTRY_CODE":"US","CLASSIFICATION_TYPE":"U","OBJECT_TYPE":"PAYLOAD","PERIAPSIS":"546.491","ARG_OF_PERICENTER":"114.5510","SITE":"AFETR","MEAN_ANOMALY":"245.5598","RCS_SIZE":"LARGE","REF_FRAME":"TEME","OBJECT_ID":"2020-057U","APOAPSIS":"548.070"},{"DECAY_DATE":null,"OBJECT_NAME":"STARLINK-1643","LAUNCH_DATE":"2020-08-18","EPOCH":"2023-04-09T06:31:58.848960","SEMIMAJOR_AXIS":"6925.368","RA_OF_ASC_NODE":"49.4504","MEAN_MOTION_DOT":"-0.00003356","FILE":"3884332","TIME_SYSTEM":"UTC","ELEMENT_SET_NO":"999","MEAN_ELEMENT_THEORY":"SGP4","PERIOD":"95.593","MEAN_MOTION_DDOT":"0.0000000000000","INCLINATION":"53.0584","ECCENTRICITY":"0.00012500","NORAD_CAT_ID":"46136","REV_AT_EPOCH":"14562","GP_ID":"229771274","BSTAR":"-0.00020653000000","SITE":"AFETR","ARG_OF_PERICENTER":"86.8091","OBJECT_TYPE":"PAYLOAD","PERIAPSIS":"546.367","APOAPSIS":"548.098","OBJECT_ID":"2020-057V","REF_FRAME":"TEME","RCS_SIZE":"LARGE","MEAN_ANOMALY":"273.3041","EPHEMERIS_TYPE":"0","CENTER_NAME":"EARTH","COUNTRY_CODE":"US","CLASSIFICATION_TYPE":"U","TLE_LINE2":"2 46136  53.0584  49.4504 0001250  86.8091 273.3041 15.06393741145620","TLE_LINE1":"1 46136U 20057V   23099.27220890 -.00003356  00000-0 -20653-3 0  9995","MEAN_MOTION":"15.06393741"},{"BSTAR":"0.00195770000000","ECCENTRICITY":"0.00011900","INCLINATION":"53.0545","MEAN_MOTION_DDOT":"0.0000000000000","REV_AT_EPOCH":"14575","GP_ID":"229771524","NORAD_CAT_ID":"46137","ELEMENT_SET_NO":"999","TIME_SYSTEM":"UTC","MEAN_MOTION_DOT":"0.00028989","FILE":"3884332","PERIOD":"95.593","MEAN_ELEMENT_THEORY":"SGP4","LAUNCH_DATE":"2020-08-18","OBJECT_NAME":"STARLINK-1586","DECAY_DATE":null,"RA_OF_ASC_NODE":"39.6676","SEMIMAJOR_AXIS":"6925.388","EPOCH":"2023-04-09T05:25:40.332864","TLE_LINE2":"2 46137  53.0545  39.6676 0001190  75.0287 285.0834 15.06387081145753","COUNTRY_CODE":"US","CLASSIFICATION_TYPE":"U","MEAN_MOTION":"15.06387081","TLE_LINE1":"1 46137U 20057W   23099.22616126  .00028989  00000-0  19577-2 0  9991","EPHEMERIS_TYPE":"0","CENTER_NAME":"EARTH","REF_FRAME":"TEME","APOAPSIS":"548.077","OBJECT_ID":"2020-057W","MEAN_ANOMALY":"285.0834","RCS_SIZE":"LARGE","SITE":"AFETR","OBJECT_TYPE":"PAYLOAD","PERIAPSIS":"546.429","ARG_OF_PERICENTER":"75.0287"},{"EPOCH":"2023-04-09T14:56:13.680384","SEMIMAJOR_AXIS":"6925.306","RA_OF_ASC_NODE":"57.8873","DECAY_DATE":null,"LAUNCH_DATE":"2020-08-18","OBJECT_NAME":"STARLINK-1590","MEAN_ELEMENT_THEORY":"SGP4","PERIOD":"95.591","FILE":"3884641","MEAN_MOTION_DOT":"0.00012996","TIME_SYSTEM":"UTC","ELEMENT_SET_NO":"999","NORAD_CAT_ID":"46138","REV_AT_EPOCH":"14553","GP_ID":"229806502","INCLINATION":"53.0550","MEAN_MOTION_DDOT":"0.0000000000000","ECCENTRICITY":"0.00014350","BSTAR":"0.00088945000000","ARG_OF_PERICENTER":"84.4488","PERIAPSIS":"546.177","OBJECT_TYPE":"PAYLOAD","SITE":"AFETR","RCS_SIZE":"LARGE","MEAN_ANOMALY":"275.6665","OBJECT_ID":"2020-057X","APOAPSIS":"548.165","REF_FRAME":"TEME","CENTER_NAME":"EARTH","EPHEMERIS_TYPE":"0","TLE_LINE1":"1 46138U 20057X   23099.62238056  .00012996  00000-0  88945-3 0  9995","MEAN_MOTION":"15.06413909","CLASSIFICATION_TYPE":"U","COUNTRY_CODE":"US","TLE_LINE2":"2 46138  53.0550  57.8873 0001435  84.4488 275.6665 15.06413909145532"},{"LAUNCH_DATE":"2020-08-18","OBJECT_NAME":"STARLINK-1594","DECAY_DATE":null,"RA_OF_ASC_NODE":"17.1841","SEMIMAJOR_AXIS":"6925.272","EPOCH":"2023-04-09T18:44:29.912064","ELEMENT_SET_NO":"999","TIME_SYSTEM":"UTC","FILE":"3884641","MEAN_MOTION_DOT":"0.00022583","PERIOD":"95.591","MEAN_ELEMENT_THEORY":"SGP4","ECCENTRICITY":"0.00011980","MEAN_MOTION_DDOT":"0.0000000000000","INCLINATION":"53.0563","GP_ID":"229805766","REV_AT_EPOCH":"14738","NORAD_CAT_ID":"46140","BSTAR":"0.00152910000000","SITE":"AFETR","OBJECT_TYPE":"PAYLOAD","PERIAPSIS":"546.307","ARG_OF_PERICENTER":"85.3167","REF_FRAME":"TEME","OBJECT_ID":"2020-057Z","APOAPSIS":"547.967","MEAN_ANOMALY":"274.7959","RCS_SIZE":"LARGE","EPHEMERIS_TYPE":"0","CENTER_NAME":"EARTH","TLE_LINE2":"2 46140  53.0563  17.1841 0001198  85.3167 274.7959 15.06425001147380","CLASSIFICATION_TYPE":"U","COUNTRY_CODE":"US","MEAN_MOTION":"15.06425001","TLE_LINE1":"1 46140U 20057Z   23099.78090176  .00022583  00000-0  15291-2 0  9990"},{"MEAN_MOTION_DDOT":"0.0000000000000","INCLINATION":"53.0554","ECCENTRICITY":"0.00011790","NORAD_CAT_ID":"46141","GP_ID":"229797096","REV_AT_EPOCH":"14611","BSTAR":"0.00103650000000","DECAY_DATE":null,"LAUNCH_DATE":"2020-08-18","OBJECT_NAME":"STARLINK-1596","EPOCH":"2023-04-09T18:12:38.903040","SEMIMAJOR_AXIS":"6925.323","RA_OF_ASC_NODE":"17.2746","MEAN_MOTION_DOT":"0.00015194","FILE":"3884641","TIME_SYSTEM":"UTC","ELEMENT_SET_NO":"999","MEAN_ELEMENT_THEORY":"SGP4","PERIOD":"95.592","EPHEMERIS_TYPE":"0","CENTER_NAME":"EARTH","CLASSIFICATION_TYPE":"U","COUNTRY_CODE":"US","TLE_LINE2":"2 46141  53.0554  17.2746 0001179 123.6069 236.5033 15.06408414146110","TLE_LINE1":"1 46141U 20057AA  23099.75878360  .00015194  00000-0  10365-2 0  9994","MEAN_MOTION":"15.06408414","SITE":"AFETR","ARG_OF_PERICENTER":"123.6069","OBJECT_TYPE":"PAYLOAD","PERIAPSIS":"546.371","OBJECT_ID":"2020-057AA","APOAPSIS":"548.004","REF_FRAME":"TEME","RCS_SIZE":"LARGE","MEAN_ANOMALY":"236.5033"},{"ARG_OF_PERICENTER":"101.5508","PERIAPSIS":"546.479","OBJECT_TYPE":"PAYLOAD","SITE":"AFETR","MEAN_ANOMALY":"258.5607","RCS_SIZE":"LARGE","REF_FRAME":"TEME","OBJECT_ID":"2020-057AB","APOAPSIS":"548.026","CENTER_NAME":"EARTH","EPHEMERIS_TYPE":"0","TLE_LINE1":"1 46142U 20057AB  23099.31277570  .00001254  00000-0  10309-3 0  9994","MEAN_MOTION":"15.06387419","COUNTRY_CODE":"US","CLASSIFICATION_TYPE":"U","TLE_LINE2":"2 46142  53.0550  59.2781 0001117 101.5508 258.5607 15.06387419145488","SEMIMAJOR_AXIS":"6925.387","EPOCH":"2023-04-09T07:30:23.820480","RA_OF_ASC_NODE":"59.2781","DECAY_DATE":null,"OBJECT_NAME":"STARLINK-1597","LAUNCH_DATE":"2020-08-18","MEAN_ELEMENT_THEORY":"SGP4","PERIOD":"95.593","FILE":"3884332","MEAN_MOTION_DOT":"0.00001254","ELEMENT_SET_NO":"999","TIME_SYSTEM":"UTC","NORAD_CAT_ID":"46142","GP_ID":"229772024","REV_AT_EPOCH":"14548","MEAN_MOTION_DDOT":"0.0000000000000","INCLINATION":"53.0550","ECCENTRICITY":"0.00011170","BSTAR":"0.00010309000000"}];
